IRIDIUM 119             
1 42959U 17061E   24126.57986888  .00000038  00000+0  64468-5 0  9991
2 42959  86.3985 348.1322 0002273  80.8635 279.2818 14.34214766344070
IRIDIUM 132             
1 42961U 17061G   24126.88433666  .00000367  00000+0  12381-3 0  9999
2 42961  86.3985 348.0064 0002004  79.3684 280.7738 14.34218773344120
IRIDIUM 136             
1 42962U 17061H   24126.84628405  .00000170  00000+0  53630-4 0  9998
2 42962  86.3987 348.0260 0002444  81.5370 278.6103 14.34217629344138
IRIDIUM 139             
1 42963U 17061J   24126.71308649  .00000089  00000+0  24754-4 0  9994
2 42963  86.3986 348.1305 0002018  79.3875 280.7548 14.34218108344120
IRIDIUM 125             
1 42964U 17061K   24126.90970793  .00000057  00000+0  13417-4 0  9990
2 42964  86.3991 348.0954 0002427  79.3403 280.8066 14.34217087344162
IRIDIUM 135             
1 43070U 17083A   24126.88382664 -.00000217  00000+0 -84537-4 0  9995
2 43070  86.3919 284.7611 0001848 101.2245 258.9158 14.34214914333456
IRIDIUM 138             
1 43071U 17083B   24126.90920310 -.00000065  00000+0 -30345-4 0  9994
2 43071  86.3913 284.4728 0002160  87.4916 272.6527 14.34217043333443
